ONEWEB-0538             
1 56047U 23043B   24008.65588863 -.00000004  00000+0 -43157-4 0  9996
2 56047  87.9044  46.0277 0002160  96.3017 263.8360 13.16593481 41797
ONEWEB-0546             
1 56048U 23043C   24008.64322697  .00000042  00000+0  76296-4 0  9997
2 56048  87.9048  45.9914 0001774  65.1437 294.9879 13.16594161 41783
ONEWEB-0547             
1 56049U 23043D   24008.68037844 -.00000007  00000+0 -49602-4 0  9993
2 56049  87.9224  61.2484 0002374  93.3528 266.7877 13.21827185 40587
ONEWEB-0548             
1 56050U 23043E   24008.59255833 -.00000017  00000+0 -78954-4 0  9998
2 56050  87.9044  46.0467 0001393 114.0351 246.0926 13.16594001 41776
ONEWEB-0549             
1 56051U 23043F   24008.67249508 -.00000031  00000+0 -10572-3 0  9997
2 56051  87.9225  61.2497 0002017 104.5856 255.5502 13.21824122 40587
ONEWEB-0550             
1 56052U 23043G   24008.65988137  .00000041  00000+0  68728-4 0  9990
2 56052  87.9223  61.2658 0001772 106.7510 253.3819 13.21825763 40582
ONEWEB-0551             
1 56053U 23043H   24008.67603086 -.00000039  00000+0 -13826-3 0  9997
2 56053  87.8988  76.5004 0002015 104.5686 255.5668 13.15548793 39318
ONEWEB-0552             
1 56054U 23043J   24008.65356977  .00000044  00000+0  76163-4 0  9998
2 56054  87.9222  61.2774 0001898 113.5565 246.5769 13.21826296 40587
