<?xml version="1.0" encoding="UTF-8"?>
<ndm xmlns:xsi="http://www.w3.org/2001/XMLSchema-instance" xsi:noNamespaceSchemaLocation="https://sanaregistry.org/r/ndmxml_unqualified/ndmxml-2.0.0-master-2.0.xsd">
<omm id="CCSDS_OMM_VERS" version="2.0">
<header><CREATION_DATE/><ORIGINATOR/></header><body><segment><metadata><OBJECT_NAME>ONEWEB-0538</OBJECT_NAME><OBJECT_ID>2023-043B</OBJECT_ID><CENTER_NAME>EARTH</CENTER_NAME><REF_FRAME>TEME</REF_FRAME><TIME_SYSTEM>UTC</TIME_SYSTEM><MEAN_ELEMENT_THEORY>SGP4</MEAN_ELEMENT_THEORY></metadata><data><meanElements><EPOCH>2024-01-08T15:44:28.777632</EPOCH><MEAN_MOTION>13.16593481</MEAN_MOTION><ECCENTRICITY>.000216</ECCENTRICITY><INCLINATION>87.9044</INCLINATION><RA_OF_ASC_NODE>46.0277</RA_OF_ASC_NODE><ARG_OF_PERICENTER>96.3017</ARG_OF_PERICENTER><MEAN_ANOMALY>263.8360</MEAN_ANOMALY></meanElements><tleParameters><EPHEMERIS_TYPE>0</EPHEMERIS_TYPE><CLASSIFICATION_TYPE>U</CLASSIFICATION_TYPE><NORAD_CAT_ID>56047</NORAD_CAT_ID><ELEMENT_SET_NO>999</ELEMENT_SET_NO><REV_AT_EPOCH>4179</REV_AT_EPOCH><BSTAR>-.43157E-4</BSTAR><MEAN_MOTION_DOT>-.4E-7</MEAN_MOTION_DOT><MEAN_MOTION_DDOT>0</MEAN_MOTION_DDOT></tleParameters></data></segment></body></omm>
<omm id="CCSDS_OMM_VERS" version="2.0">
<header><CREATION_DATE/><ORIGINATOR/></header><body><segment><metadata><OBJECT_NAME>ONEWEB-0546</OBJECT_NAME><OBJECT_ID>2023-043C</OBJECT_ID><CENTER_NAME>EARTH</CENTER_NAME><REF_FRAME>TEME</REF_FRAME><TIME_SYSTEM>UTC</TIME_SYSTEM><MEAN_ELEMENT_THEORY>SGP4</MEAN_ELEMENT_THEORY></metadata><data><meanElements><EPOCH>2024-01-08T15:26:14.810208</EPOCH><MEAN_MOTION>13.16594161</MEAN_MOTION><ECCENTRICITY>.0001774</ECCENTRICITY><INCLINATION>87.9048</INCLINATION><RA_OF_ASC_NODE>45.9914</RA_OF_ASC_NODE><ARG_OF_PERICENTER>65.1437</ARG_OF_PERICENTER><MEAN_ANOMALY>294.9879</MEAN_ANOMALY></meanElements><tleParameters><EPHEMERIS_TYPE>0</EPHEMERIS_TYPE><CLASSIFICATION_TYPE>U</CLASSIFICATION_TYPE><NORAD_CAT_ID>56048</NORAD_CAT_ID><ELEMENT_SET_NO>999</ELEMENT_SET_NO><REV_AT_EPOCH>4178</REV_AT_EPOCH><BSTAR>.76296E-4</BSTAR><MEAN_MOTION_DOT>.42E-6</MEAN_MOTION_DOT><MEAN_MOTION_DDOT>0</MEAN_MOTION_DDOT></tleParameters></data></segment></body></omm>
<omm id="CCSDS_OMM_VERS" version="2.0">
<header><CREATION_DATE/><ORIGINATOR/></header><body><segment><metadata><OBJECT_NAME>ONEWEB-0547</OBJECT_NAME><OBJECT_ID>2023-043D</OBJECT_ID><CENTER_NAME>EARTH</CENTER_NAME><REF_FRAME>TEME</REF_FRAME><TIME_SYSTEM>UTC</TIME_SYSTEM><MEAN_ELEMENT_THEORY>SGP4</MEAN_ELEMENT_THEORY></metadata><data><meanElements><EPOCH>2024-01-08T16:19:44.697216</EPOCH><MEAN_MOTION>13.21827185</MEAN_MOTION><ECCENTRICITY>.0002374</ECCENTRICITY><INCLINATION>87.9224</INCLINATION><RA_OF_ASC_NODE>61.2484</RA_OF_ASC_NODE><ARG_OF_PERICENTER>93.3528</ARG_OF_PERICENTER><MEAN_ANOMALY>266.7877</MEAN_ANOMALY></meanElements><tleParameters><EPHEMERIS_TYPE>0</EPHEMERIS_TYPE><CLASSIFICATION_TYPE>U</CLASSIFICATION_TYPE><NORAD_CAT_ID>56049</NORAD_CAT_ID><ELEMENT_SET_NO>999</ELEMENT_SET_NO><REV_AT_EPOCH>4058</REV_AT_EPOCH><BSTAR>-.49602E-4</BSTAR><MEAN_MOTION_DOT>-.7E-7</MEAN_MOTION_DOT><MEAN_MOTION_DDOT>0</MEAN_MOTION_DDOT></tleParameters></data></segment></body></omm>
<omm id="CCSDS_OMM_VERS" version="2.0">
<header><CREATION_DATE/><ORIGINATOR/></header><body><segment><metadata><OBJECT_NAME>ONEWEB-0548</OBJECT_NAME><OBJECT_ID>2023-043E</OBJECT_ID><CENTER_NAME>EARTH</CENTER_NAME><REF_FRAME>TEME</REF_FRAME><TIME_SYSTEM>UTC</TIME_SYSTEM><MEAN_ELEMENT_THEORY>SGP4</MEAN_ELEMENT_THEORY></metadata><data><meanElements><EPOCH>2024-01-08T14:13:17.039712</EPOCH><MEAN_MOTION>13.16594001</MEAN_MOTION><ECCENTRICITY>.0001393</ECCENTRICITY><INCLINATION>87.9044</INCLINATION><RA_OF_ASC_NODE>46.0467</RA_OF_ASC_NODE><ARG_OF_PERICENTER>114.0351</ARG_OF_PERICENTER><MEAN_ANOMALY>246.0926</MEAN_ANOMALY></meanElements><tleParameters><EPHEMERIS_TYPE>0</EPHEMERIS_TYPE><CLASSIFICATION_TYPE>U</CLASSIFICATION_TYPE><NORAD_CAT_ID>56050</NORAD_CAT_ID><ELEMENT_SET_NO>999</ELEMENT_SET_NO><REV_AT_EPOCH>4177</REV_AT_EPOCH><BSTAR>-.78954E-4</BSTAR><MEAN_MOTION_DOT>-.17E-6</MEAN_MOTION_DOT><MEAN_MOTION_DDOT>0</MEAN_MOTION_DDOT></tleParameters></data></segment></body></omm>
<omm id="CCSDS_OMM_VERS" version="2.0">
<header><CREATION_DATE/><ORIGINATOR/></header><body><segment><metadata><OBJECT_NAME>ONEWEB-0549</OBJECT_NAME><OBJECT_ID>2023-043F</OBJECT_ID><CENTER_NAME>EARTH</CENTER_NAME><REF_FRAME>TEME</REF_FRAME><TIME_SYSTEM>UTC</TIME_SYSTEM><MEAN_ELEMENT_THEORY>SGP4</MEAN_ELEMENT_THEORY></metadata><data><meanElements><EPOCH>2024-01-08T16:08:23.574912</EPOCH><MEAN_MOTION>13.21824122</MEAN_MOTION><ECCENTRICITY>.0002017</ECCENTRICITY><INCLINATION>87.9225</INCLINATION><RA_OF_ASC_NODE>61.2497</RA_OF_ASC_NODE><ARG_OF_PERICENTER>104.5856</ARG_OF_PERICENTER><MEAN_ANOMALY>255.5502</MEAN_ANOMALY></meanElements><tleParameters><EPHEMERIS_TYPE>0</EPHEMERIS_TYPE><CLASSIFICATION_TYPE>U</CLASSIFICATION_TYPE><NORAD_CAT_ID>56051</NORAD_CAT_ID><ELEMENT_SET_NO>999</ELEMENT_SET_NO><REV_AT_EPOCH>4058</REV_AT_EPOCH><BSTAR>-.10572E-3</BSTAR><MEAN_MOTION_DOT>-.31E-6</MEAN_MOTION_DOT><MEAN_MOTION_DDOT>0</MEAN_MOTION_DDOT></tleParameters></data></segment></body></omm>
<omm id="CCSDS_OMM_VERS" version="2.0">
<header><CREATION_DATE/><ORIGINATOR/></header><body><segment><metadata><OBJECT_NAME>ONEWEB-0550</OBJECT_NAME><OBJECT_ID>2023-043G</OBJECT_ID><CENTER_NAME>EARTH</CENTER_NAME><REF_FRAME>TEME</REF_FRAME><TIME_SYSTEM>UTC</TIME_SYSTEM><MEAN_ELEMENT_THEORY>SGP4</MEAN_ELEMENT_THEORY></metadata><data><meanElements><EPOCH>2024-01-08T15:50:13.750368</EPOCH><MEAN_MOTION>13.21825763</MEAN_MOTION><ECCENTRICITY>.0001772</ECCENTRICITY><INCLINATION>87.9223</INCLINATION><RA_OF_ASC_NODE>61.2658</RA_OF_ASC_NODE><ARG_OF_PERICENTER>106.7510</ARG_OF_PERICENTER><MEAN_ANOMALY>253.3819</MEAN_ANOMALY></meanElements><tleParameters><EPHEMERIS_TYPE>0</EPHEMERIS_TYPE><CLASSIFICATION_TYPE>U</CLASSIFICATION_TYPE><NORAD_CAT_ID>56052</NORAD_CAT_ID><ELEMENT_SET_NO>999</ELEMENT_SET_NO><REV_AT_EPOCH>4058</REV_AT_EPOCH><BSTAR>.68728E-4</BSTAR><MEAN_MOTION_DOT>.41E-6</MEAN_MOTION_DOT><MEAN_MOTION_DDOT>0</MEAN_MOTION_DDOT></tleParameters></data></segment></body></omm>
<omm id="CCSDS_OMM_VERS" version="2.0">
<header><CREATION_DATE/><ORIGINATOR/></header><body><segment><metadata><OBJECT_NAME>ONEWEB-0551</OBJECT_NAME><OBJECT_ID>2023-043H</OBJECT_ID><CENTER_NAME>EARTH</CENTER_NAME><REF_FRAME>TEME</REF_FRAME><TIME_SYSTEM>UTC</TIME_SYSTEM><MEAN_ELEMENT_THEORY>SGP4</MEAN_ELEMENT_THEORY></metadata><data><meanElements><EPOCH>2024-01-08T16:13:29.066304</EPOCH><MEAN_MOTION>13.15548793</MEAN_MOTION><ECCENTRICITY>.0002015</ECCENTRICITY><INCLINATION>87.8988</INCLINATION><RA_OF_ASC_NODE>76.5004</RA_OF_ASC_NODE><ARG_OF_PERICENTER>104.5686</ARG_OF_PERICENTER><MEAN_ANOMALY>255.5668</MEAN_ANOMALY></meanElements><tleParameters><EPHEMERIS_TYPE>0</EPHEMERIS_TYPE><CLASSIFICATION_TYPE>U</CLASSIFICATION_TYPE><NORAD_CAT_ID>56053</NORAD_CAT_ID><ELEMENT_SET_NO>999</ELEMENT_SET_NO><REV_AT_EPOCH>3931</REV_AT_EPOCH><BSTAR>-.13826E-3</BSTAR><MEAN_MOTION_DOT>-.39E-6</MEAN_MOTION_DOT><MEAN_MOTION_DDOT>0</MEAN_MOTION_DDOT></tleParameters></data></segment></body></omm>
<omm id="CCSDS_OMM_VERS" version="2.0">
<header><CREATION_DATE/><ORIGINATOR/></header><body><segment><metadata><OBJECT_NAME>ONEWEB-0552</OBJECT_NAME><OBJECT_ID>2023-043J</OBJECT_ID><CENTER_NAME>EARTH</CENTER_NAME><REF_FRAME>TEME</REF_FRAME><TIME_SYSTEM>UTC</TIME_SYSTEM><MEAN_ELEMENT_THEORY>SGP4</MEAN_ELEMENT_THEORY></metadata><data><meanElements><EPOCH>2024-01-08T15:41:08.428128</EPOCH><MEAN_MOTION>13.21826296</MEAN_MOTION><ECCENTRICITY>.0001898</ECCENTRICITY><INCLINATION>87.9222</INCLINATION><RA_OF_ASC_NODE>61.2774</RA_OF_ASC_NODE><ARG_OF_PERICENTER>113.5565</ARG_OF_PERICENTER><MEAN_ANOMALY>246.5769</MEAN_ANOMALY></meanElements><tleParameters><EPHEMERIS_TYPE>0</EPHEMERIS_TYPE><CLASSIFICATION_TYPE>U</CLASSIFICATION_TYPE><NORAD_CAT_ID>56054</NORAD_CAT_ID><ELEMENT_SET_NO>999</ELEMENT_SET_NO><REV_AT_EPOCH>4058</REV_AT_EPOCH><BSTAR>.76163E-4</BSTAR><MEAN_MOTION_DOT>.44E-6</MEAN_MOTION_DOT><MEAN_MOTION_DDOT>0</MEAN_MOTION_DDOT></tleParameters></data></segment></body></omm>

</ndm>
